start=new Date('2021-12-21T00:00:00.000Z').valueOf();
sats=[{"TIME_SYSTEM":"UTC","CENTER_NAME":"EARTH","TLE_LINE2":"2 45711  53.0534 109.2953 0001484  85.0061 275.1098 15.06413765 87056","COUNTRY_CODE":"US","MEAN_ANOMALY":"275.1098","MEAN_MOTION":"15.06413765","MEAN_ELEMENT_THEORY":"SGP4","SITE":"AFETR","EPHEMERIS_TYPE":"0","INCLINATION":"53.0534","REV_AT_EPOCH":"8705","CLASSIFICATION_TYPE":"U","SEMIMAJOR_AXIS":"6925.306","FILE":"3245895","DECAY_DATE":null,"APOAPSIS":"548.199","MEAN_MOTION_DDOT":"0.0000000000000","MEAN_MOTION_DOT":"0.00007400","EPOCH":"2021-12-20T20:04:36.969600","LAUNCH_DATE":"2020-06-04","OBJECT_NAME":"STARLINK-1433","GP_ID":"192110606","BSTAR":"0.00051500000000","NORAD_CAT_ID":"45711","PERIAPSIS":"546.144","ECCENTRICITY":"0.00014840","ELEMENT_SET_NO":"999","OBJECT_ID":"2020-035BG","RCS_SIZE":"LARGE","OBJECT_TYPE":"PAYLOAD","TLE_LINE1":"1 45711U 20035BG  21354.83653900  .00007400  00000-0  51500-3 0  9992","ARG_OF_PERICENTER":"85.0061","RA_OF_ASC_NODE":"109.2953","PERIOD":"95.591","REF_FRAME":"TEME"},{"APOAPSIS":"548.198","OBJECT_NAME":"STARLINK-1434","LAUNCH_DATE":"2020-06-04","EPOCH":"2021-12-20T19:59:17.581632","MEAN_MOTION_DOT":"-0.00000412","MEAN_MOTION_DDOT":"0.0000000000000","BSTAR":"-0.00000877800000","GP_ID":"192110858","NORAD_CAT_ID":"45712","OBJECT_ID":"2020-035BH","ELEMENT_SET_NO":"999","ECCENTRICITY":"0.00014290","PERIAPSIS":"546.219","RCS_SIZE":"LARGE","PERIOD":"95.592","RA_OF_ASC_NODE":"109.3112","ARG_OF_PERICENTER":"96.7576","OBJECT_TYPE":"PAYLOAD","TLE_LINE1":"1 45712U 20035BH  21354.83284238 -.00000412  00000-0 -87780-5 0  9996","REF_FRAME":"TEME","CENTER_NAME":"EARTH","TIME_SYSTEM":"UTC","COUNTRY_CODE":"US","TLE_LINE2":"2 45712  53.0542 109.3112 0001429  96.7576 263.3575 15.06401687 87063","MEAN_ANOMALY":"263.3575","MEAN_MOTION":"15.06401687","INCLINATION":"53.0542","EPHEMERIS_TYPE":"0","SITE":"AFETR","MEAN_ELEMENT_THEORY":"SGP4","REV_AT_EPOCH":"8706","SEMIMAJOR_AXIS":"6925.343","CLASSIFICATION_TYPE":"U","DECAY_DATE":null,"FILE":"3245895"},{"INCLINATION":"53.0523","SITE":"AFETR","EPHEMERIS_TYPE":"0","MEAN_ELEMENT_THEORY":"SGP4","REV_AT_EPOCH":"8677","SEMIMAJOR_AXIS":"6925.340","CLASSIFICATION_TYPE":"U","DECAY_DATE":null,"FILE":"3245895","CENTER_NAME":"EARTH","TIME_SYSTEM":"UTC","COUNTRY_CODE":"US","TLE_LINE2":"2 45713  53.0523 129.2193 0001614  97.6986 262.4186 15.06402728 86776","MEAN_ANOMALY":"262.4186","MEAN_MOTION":"15.06402728","RCS_SIZE":"LARGE","PERIOD":"95.592","RA_OF_ASC_NODE":"129.2193","ARG_OF_PERICENTER":"97.6986","OBJECT_TYPE":"PAYLOAD","TLE_LINE1":"1 45713U 20035BJ  21354.85313421  .00005339  00000-0  37699-3 0  9999","REF_FRAME":"TEME","APOAPSIS":"548.323","LAUNCH_DATE":"2020-06-04","OBJECT_NAME":"STARLINK-1436","EPOCH":"2021-12-20T20:28:30.795744","MEAN_MOTION_DOT":"0.00005339","MEAN_MOTION_DDOT":"0.0000000000000","GP_ID":"192111109","BSTAR":"0.00037699000000","NORAD_CAT_ID":"45713","ELEMENT_SET_NO":"999","OBJECT_ID":"2020-035BJ","ECCENTRICITY":"0.00016140","PERIAPSIS":"546.087"},{"REF_FRAME":"TEME","RCS_SIZE":"LARGE","PERIOD":"95.592","RA_OF_ASC_NODE":"109.2630","ARG_OF_PERICENTER":"103.6022","OBJECT_TYPE":"PAYLOAD","TLE_LINE1":"1 45714U 20035BK  21354.84389582  .00001390  00000-0  11220-3 0  9995","NORAD_CAT_ID":"45714","GP_ID":"192109857","BSTAR":"0.00011220000000","ELEMENT_SET_NO":"999","OBJECT_ID":"2020-035BK","ECCENTRICITY":"0.00014520","PERIAPSIS":"546.184","APOAPSIS":"548.195","LAUNCH_DATE":"2020-06-04","OBJECT_NAME":"STARLINK-1437","EPOCH":"2021-12-20T20:15:12.598848","MEAN_MOTION_DOT":"0.00001390","MEAN_MOTION_DDOT":"0.0000000000000","SEMIMAJOR_AXIS":"6925.324","CLASSIFICATION_TYPE":"U","DECAY_DATE":null,"FILE":"3245895","INCLINATION":"53.0541","SITE":"AFETR","EPHEMERIS_TYPE":"0","MEAN_ELEMENT_THEORY":"SGP4","REV_AT_EPOCH":"8706","MEAN_MOTION":"15.06407911","MEAN_ANOMALY":"256.5129","CENTER_NAME":"EARTH","TIME_SYSTEM":"UTC","COUNTRY_CODE":"US","TLE_LINE2":"2 45714  53.0541 109.2630 0001452 103.6022 256.5129 15.06407911 87063"},{"RCS_SIZE":"LARGE","RA_OF_ASC_NODE":"300.0476","PERIOD":"91.284","TLE_LINE1":"1 45716U 20035BM  21354.71093628  .00074682  00000-0  44047-3 0  9993","OBJECT_TYPE":"PAYLOAD","ARG_OF_PERICENTER":"115.8526","REF_FRAME":"TEME","APOAPSIS":"342.242","EPOCH":"2021-12-20T17:03:44.894592","LAUNCH_DATE":"2020-06-04","OBJECT_NAME":"STARLINK-1439","MEAN_MOTION_DDOT":"0.0000000000000","MEAN_MOTION_DOT":"0.00074682","GP_ID":"192110107","NORAD_CAT_ID":"45716","BSTAR":"0.00044047000000","OBJECT_ID":"2020-035BM","ELEMENT_SET_NO":"999","PERIAPSIS":"332.859","ECCENTRICITY":"0.00069860","EPHEMERIS_TYPE":"0","SITE":"AFETR","INCLINATION":"53.0002","MEAN_ELEMENT_THEORY":"SGP4","REV_AT_EPOCH":"8940","SEMIMAJOR_AXIS":"6715.685","CLASSIFICATION_TYPE":"U","DECAY_DATE":null,"FILE":"3245895","CENTER_NAME":"EARTH","TIME_SYSTEM":"UTC","COUNTRY_CODE":"US","TLE_LINE2":"2 45716  53.0002 300.0476 0006986 115.8526 244.3215 15.77492298 89408","MEAN_MOTION":"15.77492298","MEAN_ANOMALY":"244.3215"},{"REF_FRAME":"TEME","RCS_SIZE":"LARGE","ARG_OF_PERICENTER":"61.9726","TLE_LINE1":"1 45730U 20038A   21354.92129956  .00001732  00000-0  13515-3 0  9991","OBJECT_TYPE":"PAYLOAD","PERIOD":"95.592","RA_OF_ASC_NODE":"308.8971","NORAD_CAT_ID":"45730","GP_ID":"192110859","BSTAR":"0.00013515000000","ECCENTRICITY":"0.00018390","PERIAPSIS":"545.937","OBJECT_ID":"2020-038A","ELEMENT_SET_NO":"999","APOAPSIS":"548.484","MEAN_MOTION_DOT":"0.00001732","MEAN_MOTION_DDOT":"0.0000000000000","OBJECT_NAME":"STARLINK-1461","LAUNCH_DATE":"2020-06-13","EPOCH":"2021-12-20T22:06:40.281984","CLASSIFICATION_TYPE":"U","SEMIMAJOR_AXIS":"6925.346","FILE":"3245895","DECAY_DATE":null,"MEAN_ELEMENT_THEORY":"SGP4","INCLINATION":"53.0546","SITE":"AFETR","EPHEMERIS_TYPE":"0","REV_AT_EPOCH":"8412","MEAN_MOTION":"15.06400957","MEAN_ANOMALY":"298.1449","TIME_SYSTEM":"UTC","CENTER_NAME":"EARTH","TLE_LINE2":"2 45730  53.0546 308.8971 0001839  61.9726 298.1449 15.06400957 84121","COUNTRY_CODE":"US"},{"REF_FRAME":"TEME","RA_OF_ASC_NODE":"309.1462","PERIOD":"95.592","OBJECT_TYPE":"PAYLOAD","TLE_LINE1":"1 45731U 20038B   21354.86969417  .00001958  00000-0  15028-3 0  9990","ARG_OF_PERICENTER":"56.2105","RCS_SIZE":"LARGE","OBJECT_ID":"2020-038B","ELEMENT_SET_NO":"999","PERIAPSIS":"545.636","ECCENTRICITY":"0.00022400","GP_ID":"192111110","NORAD_CAT_ID":"45731","BSTAR":"0.00015028000000","EPOCH":"2021-12-20T20:52:21.576288","LAUNCH_DATE":"2020-06-13","OBJECT_NAME":"STARLINK-1465","MEAN_MOTION_DDOT":"0.0000000000000","MEAN_MOTION_DOT":"0.00001958","APOAPSIS":"548.739","DECAY_DATE":null,"FILE":"3245895","SEMIMAJOR_AXIS":"6925.322","CLASSIFICATION_TYPE":"U","REV_AT_EPOCH":"8410","EPHEMERIS_TYPE":"0","SITE":"AFETR","INCLINATION":"53.0547","MEAN_ELEMENT_THEORY":"SGP4","MEAN_ANOMALY":"303.9097","MEAN_MOTION":"15.06408511","COUNTRY_CODE":"US","TLE_LINE2":"2 45731  53.0547 309.1462 0002240  56.2105 303.9097 15.06408511 84103","CENTER_NAME":"EARTH","TIME_SYSTEM":"UTC"},{"PERIOD":"95.593","RA_OF_ASC_NODE":"310.3780","ARG_OF_PERICENTER":"59.7871","TLE_LINE1":"1 45732U 20038C   21354.59326832  .00000125  00000-0  27272-4 0  9999","OBJECT_TYPE":"PAYLOAD","RCS_SIZE":"LARGE","REF_FRAME":"TEME","LAUNCH_DATE":"2020-06-13","OBJECT_NAME":"STARLINK-1466","EPOCH":"2021-12-20T14:14:18.382848","MEAN_MOTION_DOT":"0.00000125","MEAN_MOTION_DDOT":"0.0000000000000","APOAPSIS":"548.435","OBJECT_ID":"2020-038C","ELEMENT_SET_NO":"999","ECCENTRICITY":"0.00017170","PERIAPSIS":"546.056","NORAD_CAT_ID":"45732","GP_ID":"192109858","BSTAR":"0.00002727200000","REV_AT_EPOCH":"8406","INCLINATION":"53.0553","SITE":"AFETR","EPHEMERIS_TYPE":"0","MEAN_ELEMENT_THEORY":"SGP4","DECAY_DATE":null,"FILE":"3245895","SEMIMAJOR_AXIS":"6925.381","CLASSIFICATION_TYPE":"U","COUNTRY_CODE":"US","TLE_LINE2":"2 45732  53.0553 310.3780 0001717  59.7871 300.3288 15.06389569 84063","CENTER_NAME":"EARTH","TIME_SYSTEM":"UTC","MEAN_ANOMALY":"300.3288","MEAN_MOTION":"15.06389569"},{"EPHEMERIS_TYPE":"0","SITE":"AFETR","INCLINATION":"53.0560","MEAN_ELEMENT_THEORY":"SGP4","REV_AT_EPOCH":"8406","SEMIMAJOR_AXIS":"6925.331","CLASSIFICATION_TYPE":"U","DECAY_DATE":null,"FILE":"3245895","CENTER_NAME":"EARTH","TIME_SYSTEM":"UTC","COUNTRY_CODE":"US","TLE_LINE2":"2 45733  53.0560 310.3574 0002210  56.2945 303.8254 15.06405883 84065","MEAN_MOTION":"15.06405883","MEAN_ANOMALY":"303.8254","RCS_SIZE":"LARGE","RA_OF_ASC_NODE":"310.3574","PERIOD":"95.592","TLE_LINE1":"1 45733U 20038D   21354.60062360  .00002141  00000-0  16259-3 0  9997","OBJECT_TYPE":"PAYLOAD","ARG_OF_PERICENTER":"56.2945","REF_FRAME":"TEME","APOAPSIS":"548.726","EPOCH":"2021-12-20T14:24:53.879040","LAUNCH_DATE":"2020-06-13","OBJECT_NAME":"STARLINK-1467","MEAN_MOTION_DDOT":"0.0000000000000","MEAN_MOTION_DOT":"0.00002141","BSTAR":"0.00016259000000","GP_ID":"192110108","NORAD_CAT_ID":"45733","OBJECT_ID":"2020-038D","ELEMENT_SET_NO":"999","PERIAPSIS":"545.665","ECCENTRICITY":"0.00022100"},{"MEAN_ANOMALY":"303.5297","MEAN_MOTION":"15.06404641","TLE_LINE2":"2 45734  53.0540 308.9330 0002022  56.5885 303.5297 15.06404641 84115","COUNTRY_CODE":"US","TIME_SYSTEM":"UTC","CENTER_NAME":"EARTH","FILE":"3245895","DECAY_DATE":null,"CLASSIFICATION_TYPE":"U","SEMIMAJOR_AXIS":"6925.334","REV_AT_EPOCH":"8411","MEAN_ELEMENT_THEORY":"SGP4","SITE":"AFETR","EPHEMERIS_TYPE":"0","INCLINATION":"53.0540","PERIAPSIS":"545.799","ECCENTRICITY":"0.00020220","OBJECT_ID":"2020-038E","ELEMENT_SET_NO":"999","BSTAR":"0.00014238000000","GP_ID":"192111359","NORAD_CAT_ID":"45734","MEAN_MOTION_DDOT":"0.0000000000000","MEAN_MOTION_DOT":"0.00001840","EPOCH":"2021-12-20T21:56:03.592608","OBJECT_NAME":"STARLINK-1468","LAUNCH_DATE":"2020-06-13","APOAPSIS":"548.600","REF_FRAME":"TEME","OBJECT_TYPE":"PAYLOAD","TLE_LINE1":"1 45734U 20038E   21354.91393047  .00001840  00000-0  14238-3 0  9991","ARG_OF_PERICENTER":"56.5885","RA_OF_ASC_NODE":"308.9330","PERIOD":"95.592","RCS_SIZE":"LARGE"}];
